{
  "type": "FeatureCollection",
  "features": [
    {
      "type": "Feature",
      "properties": {
        "norad_id": 34492,
        "name": "IRIDIUM 33 DEB",
        "group": "iridium-33-debris",
        "lat": 85.09331958160313,
        "lon": 18.875106062451625,
        "alt_km": 897.698457003682,
        "timestamp": "2025-12-16T23:36:36.583302+00:00",
        "meta_object_name": "IRIDIUM 33 DEB",
        "meta_object_id": "1997-051GH",
        "meta_epoch": "2025-12-15T10:44:59.012736",
        "meta_mean_motion": 14.25789641,
        "meta_eccentricity": 0.01889008,
        "meta_inclination": 86.4708,
        "meta_ra_of_asc_node": 333.5341,
        "meta_arg_of_pericenter": 229.3611,
        "meta_mean_anomaly": 260.3123,
        "meta_ephemeris_type": 0,
        "meta_classification_type": "U",
        "meta_norad_cat_id": 34492,
        "meta_element_set_no": 999,
        "meta_rev_at_epoch": 85097,
        "meta_bstar": 0.002450853,
        "meta_mean_motion_dot": 7.043e-05,
        "meta_mean_motion_ddot": 0,
        "tle_line1": "1 34492U 97051GH  25349.44790524  .00007043  00000+0  24509-2 0  9997",
        "tle_line2": "2 34492  86.4708 333.5341 0188900 229.3611 260.3123 14.25789641850972"
      },
      "geometry": {
        "type": "Point",
        "coordinates": [
          18.875106062451625,
          85.09331958160313
        ]
      }
    },
    {
      "type": "Feature",
      "properties": {
        "norad_id": 34497,
        "name": "IRIDIUM 33 DEB",
        "group": "iridium-33-debris",
        "lat": -7.5766038622339815,
        "lon": 50.09223478087375,
        "alt_km": 753.8062303485895,
        "timestamp": "2025-12-16T23:36:36.583312+00:00",
        "meta_object_name": "IRIDIUM 33 DEB",
        "meta_object_id": "1997-051GN",
        "meta_epoch": "2025-12-16T03:35:34.476576",
        "meta_mean_motion": 14.27464272,
        "meta_eccentricity": 0.00784657,
        "meta_inclination": 86.2776,
        "meta_ra_of_asc_node": 50.9446,
        "meta_arg_of_pericenter": 328.4277,
        "meta_mean_anomaly": 60.2954,
        "meta_ephemeris_type": 0,
        "meta_classification_type": "U",
        "meta_norad_cat_id": 34497,
        "meta_element_set_no": 999,
        "meta_rev_at_epoch": 86932,
        "meta_bstar": 0.00047338082,
        "meta_mean_motion_dot": 1.218e-05,
        "meta_mean_motion_ddot": 0,
        "tle_line1": "1 34497U 97051GN  25350.14970459  .00001218  00000+0  47338-3 0  9992",
        "tle_line2": "2 34497  86.2776  50.9446 0078465 328.4277  60.2954 14.27464272869329"
      },
      "geometry": {
        "type": "Point",
        "coordinates": [
          50.09223478087375,
          -7.5766038622339815
        ]
      }
    },
    {
      "type": "Feature",
      "properties": {
        "norad_id": 34508,
        "name": "IRIDIUM 33 DEB",
        "group": "iridium-33-debris",
        "lat": -41.95320237740572,
        "lon": 97.57316588634686,
        "alt_km": 814.5056803312445,
        "timestamp": "2025-12-16T23:36:36.583323+00:00",
        "meta_object_name": "IRIDIUM 33 DEB",
        "meta_object_id": "1997-051GZ",
        "meta_epoch": "2025-12-16T07:06:45.453888",
        "meta_mean_motion": 14.38457385,
        "meta_eccentricity": 0.0066459,
        "meta_inclination": 86.3703,
        "meta_ra_of_asc_node": 101.1357,
        "meta_arg_of_pericenter": 161.4347,
        "meta_mean_anomaly": 198.9299,
        "meta_ephemeris_type": 0,
        "meta_classification_type": "U",
        "meta_norad_cat_id": 34508,
        "meta_element_set_no": 999,
        "meta_rev_at_epoch": 87360,
        "meta_bstar": 0.00097432475,
        "meta_mean_motion_dot": 3.07e-05,
        "meta_mean_motion_ddot": 0,
        "tle_line1": "1 34508U 97051GZ  25350.29635942  .00003070  00000+0  97432-3 0  9994",
        "tle_line2": "2 34508  86.3703 101.1357 0066459 161.4347 198.9299 14.38457385873602"
      },
      "geometry": {
        "type": "Point",
        "coordinates": [
          97.57316588634686,
          -41.95320237740572
        ]
      }
    },
    {
      "type": "Feature",
      "properties": {
        "norad_id": 34521,
        "name": "IRIDIUM 33 DEB",
        "group": "iridium-33-debris",
        "lat": 23.83713127038764,
        "lon": -152.92260296220087,
        "alt_km": 680.6848970206083,
        "timestamp": "2025-12-16T23:36:36.583334+00:00",
        "meta_object_name": "IRIDIUM 33 DEB",
        "meta_object_id": "1997-051HN",
        "meta_epoch": "2025-12-16T03:12:23.329440",
        "meta_mean_motion": 14.63397521,
        "meta_eccentricity": 0.00019565,
        "meta_inclination": 86.3801,
        "meta_ra_of_asc_node": 29.0543,
        "meta_arg_of_pericenter": 197.2639,
        "meta_mean_anomaly": 162.8507,
        "meta_ephemeris_type": 0,
        "meta_classification_type": "U",
        "meta_norad_cat_id": 34521,
        "meta_element_set_no": 999,
        "meta_rev_at_epoch": 88522,
        "meta_bstar": 0.00059079967,
        "meta_mean_motion_dot": 3.075e-05,
        "meta_mean_motion_ddot": 0,
        "tle_line1": "1 34521U 97051HN  25350.13360335  .00003075  00000+0  59080-3 0  9995",
        "tle_line2": "2 34521  86.3801  29.0543 0001956 197.2639 162.8507 14.63397521885229"
      },
      "geometry": {
        "type": "Point",
        "coordinates": [
          -152.92260296220087,
          23.83713127038764
        ]
      }
    },
    {
      "type": "Feature",
      "properties": {
        "norad_id": 34525,
        "name": "IRIDIUM 33 DEB",
        "group": "iridium-33-debris",
        "lat": 22.440850567112086,
        "lon": 46.53373233949756,
        "alt_km": 746.4276323042004,
        "timestamp": "2025-12-16T23:36:36.583344+00:00",
        "meta_object_name": "IRIDIUM 33 DEB",
        "meta_object_id": "1997-051HS",
        "meta_epoch": "2025-12-16T03:39:56.355840",
        "meta_mean_motion": 14.42913658,
        "meta_eccentricity": 0.00065914,
        "meta_inclination": 86.3727,
        "meta_ra_of_asc_node": 45.3871,
        "meta_arg_of_pericenter": 87.2888,
        "meta_mean_anomaly": 301.3893,
        "meta_ephemeris_type": 0,
        "meta_classification_type": "U",
        "meta_norad_cat_id": 34525,
        "meta_element_set_no": 999,
        "meta_rev_at_epoch": 88137,
        "meta_bstar": 0.00032204715,
        "meta_mean_motion_dot": 1.096e-05,
        "meta_mean_motion_ddot": 0,
        "tle_line1": "1 34525U 97051HS  25350.15273560  .00001096  00000+0  32205-3 0  9995",
        "tle_line2": "2 34525  86.3727  45.3871 0006591  87.2888 301.3893 14.42913658881371"
      },
      "geometry": {
        "type": "Point",
        "coordinates": [
          46.53373233949756,
          22.440850567112086
        ]
      }
    },
    {
      "type": "Feature",
      "properties": {
        "norad_id": 34529,
        "name": "IRIDIUM 33 DEB",
        "group": "iridium-33-debris",
        "lat": -62.36664326118846,
        "lon": -139.42060545933373,
        "alt_km": 763.0102672893227,
        "timestamp": "2025-12-16T23:36:36.583354+00:00",
        "meta_object_name": "IRIDIUM 33 DEB",
        "meta_object_id": "1997-051HW",
        "meta_epoch": "2025-12-16T04:09:03.226464",
        "meta_mean_motion": 14.4061845,
        "meta_eccentricity": 0.00052348,
        "meta_inclination": 86.3638,
        "meta_ra_of_asc_node": 33.9483,
        "meta_arg_of_pericenter": 166.2156,
        "meta_mean_anomaly": 193.9188,
        "meta_ephemeris_type": 0,
        "meta_classification_type": "U",
        "meta_norad_cat_id": 34529,
        "meta_element_set_no": 999,
        "meta_rev_at_epoch": 88191,
        "meta_bstar": 0.00010343684,
        "meta_mean_motion_dot": 3.5e-06,
        "meta_mean_motion_ddot": 0,
        "tle_line1": "1 34529U 97051HW  25350.17295401  .00000350  00000+0  10344-3 0  9991",
        "tle_line2": "2 34529  86.3638  33.9483 0005234 166.2156 193.9188 14.40618450881919"
      },
      "geometry": {
        "type": "Point",
        "coordinates": [
          -139.42060545933373,
          -62.36664326118846
        ]
      }
    },
    {
      "type": "Feature",
      "properties": {
        "norad_id": 34538,
        "name": "IRIDIUM 33 DEB",
        "group": "iridium-33-debris",
        "lat": 68.74230448726595,
        "lon": 174.06335491311177,
        "alt_km": 764.4591752634842,
        "timestamp": "2025-12-16T23:36:36.583365+00:00",
        "meta_object_name": "IRIDIUM 33 DEB",
        "meta_object_id": "1997-051JF",
        "meta_epoch": "2025-12-16T01:46:22.742976",
        "meta_mean_motion": 14.42668807,
        "meta_eccentricity": 0.00325061,
        "meta_inclination": 86.2772,
        "meta_ra_of_asc_node": 4.0961,
        "meta_arg_of_pericenter": 316.6047,
        "meta_mean_anomaly": 111.5833,
        "meta_ephemeris_type": 0,
        "meta_classification_type": "U",
        "meta_norad_cat_id": 34538,
        "meta_element_set_no": 999,
        "meta_rev_at_epoch": 87804,
        "meta_bstar": 0.00067104225,
        "meta_mean_motion_dot": 2.264e-05,
        "meta_mean_motion_ddot": 0,
        "tle_line1": "1 34538U 97051JF  25350.07387434  .00002264  00000+0  67104-3 0  9990",
        "tle_line2": "2 34538  86.2772   4.0961 0032506 316.6047 111.5833 14.42668807878045"
      },
      "geometry": {
        "type": "Point",
        "coordinates": [
          174.06335491311177,
          68.74230448726595
        ]
      }
    }
  ]
}